{
  "norad_id": 68872,
  "name": "KUIPER-00459",
  "history": [
    {
      "epoch": "2026-05-02T10:00:03.000096Z",
      "apogee_km": 466.02417561012953,
      "perigee_km": 450.5915849373996,
      "latitude_deg": 38.98272078225244,
      "longitude_deg": -125.776534293685,
      "height_km": 453.874709202361,
      "semi_major_axis_km": 6836.444880273764,
      "eccentricity": 0.0011287,
      "inclination_deg": 51.87,
      "raan_deg": 103.7482,
      "arg_perigee_deg": 133.5209,
      "mean_anomaly_deg": 353.6006,
      "mean_motion_rev_day": 15.35880007
    }
  ]
}