{"fetched_at":"2026-05-03T06:27:58Z","count":17151,"tles":[{"name":"KUIPER-00459","line1":"1 68872U 26095J   26122.41670139  .00071121  00000+0  19941-2 0  9994","line2":"2 68872  51.8700 103.7482 0011287 133.5209 353.6006 15.35880007  1350","category":"Other"}]}